SENTINEL-6A             
1 46984U 20086A   26187.13601200 -.00000041  00000+0  87840-4 0  9990
2 46984  66.0415  95.6969 0007829 270.0295  89.9823 12.80930112262758
SENTINEL-6B             
1 66514U 25264A   26187.13636000 -.00000045  00000+0  68988-4 0  9996
2 66514  66.0415  95.8222 0007892 268.8789  91.1322 12.80930081 29593
