{"fetched_at":"2026-07-06T18:35:52.738Z","source":"https://celestrak.org/NORAD/elements/gp.php?NAME=SENTINEL&FORMAT=JSON","constellation":"sentinel-6","records":[{"OBJECT_NAME":"SENTINEL-6A","OBJECT_ID":"2020-086A","EPOCH":"2026-07-06T03:15:51.437664","CLASSIFICATION_TYPE":"U","MEAN_MOTION":12.80930112,"ECCENTRICITY":0.00078294,"INCLINATION":66.0415,"RA_OF_ASC_NODE":95.6969,"ARG_OF_PERICENTER":270.0295,"MEAN_ANOMALY":89.9823,"EPHEMERIS_TYPE":0,"NORAD_CAT_ID":46984,"ELEMENT_SET_NO":999,"REV_AT_EPOCH":26275,"BSTAR":0.000087839757,"MEAN_MOTION_DOT":-4.1e-7,"MEAN_MOTION_DDOT":0},{"OBJECT_NAME":"SENTINEL-6B","OBJECT_ID":"2025-264A","EPOCH":"2026-07-06T03:16:21.504000","CLASSIFICATION_TYPE":"U","MEAN_MOTION":12.80930081,"ECCENTRICITY":0.0007892,"INCLINATION":66.0415,"RA_OF_ASC_NODE":95.8222,"ARG_OF_PERICENTER":268.8789,"MEAN_ANOMALY":91.1322,"EPHEMERIS_TYPE":0,"NORAD_CAT_ID":66514,"ELEMENT_SET_NO":999,"REV_AT_EPOCH":2959,"BSTAR":0.000068988059,"MEAN_MOTION_DOT":-4.5e-7,"MEAN_MOTION_DDOT":0}]}
